STARLINK-6259           
1 57089U 23088AT  26165.01693504 -.00000002  00000+0  94615-5 0  9990
2 57089  43.0054 272.0091 0002131 286.7447  73.3171 15.27576832165238
STARLINK-6254           
1 57090U 23088AU  26165.00279695 -.00000135  00000+0  46112-5 0  9998
2 57090  42.9950 271.9003 0001972 248.8160 111.2481 15.27573072165236
STARLINK-6262           
1 57091U 23088AV  26165.59770297 -.00000207  00000+0  19981-5 0  9991
2 57091  43.0043 268.6254 0001514 272.5883  87.4795 15.27573701165322
STARLINK-6225           
1 57092U 23088AW  26165.59385197  .00002452  00000+0  98540-4 0  9993
2 57092  43.0011 268.6003 0001182 271.8107  88.2610 15.27596952165320
STARLINK-6229           
1 57093U 23088AX  26165.02079825  .00001826  00000+0  75903-4 0  9992
2 57093  43.0072 272.0293 0002670 269.0906  90.9640 15.27574356165234
STARLINK-6235           
1 57094U 23088AY  26165.02463205 -.00002723  00000+0 -89392-4 0  9998
2 57094  43.0064 272.0666 0003669 294.6869  65.3600 15.27583891165237
STARLINK-6132           
1 57101U 23090A   26165.08230507  .00000972  00000+0  44840-4 0  9994
2 57101  43.0063  97.2483 0001533 260.5724  99.4955 15.27583765165072
STARLINK-6111           
1 57102U 23090B   26165.09002041  .00000811  00000+0  38992-4 0  9999
2 57102  43.0039  97.3051 0001456 237.8409 122.2301 15.27577034165071
STARLINK-6130           
1 57104U 23090D   26165.08616488 -.00000188  00000+0  27113-5 0  9998
2 57104  43.0037  97.2760 0001589 268.2773  91.7897 15.27575923165060
STARLINK-6097           
1 57105U 23090E   26165.09259827  .00000941  00000+0  43732-4 0  9990
2 57105  43.0025  97.3215 0001386 257.6055 102.4642 15.27581903165078
STARLINK-6118           
1 57106U 23090F   26165.08102561  .00000252  00000+0  18670-4 0  9990
2 57106  43.0067  97.2389 0001297 261.0042  99.0663 15.27578681165075
STARLINK-6131           
1 57107U 23090G   26165.51431496 -.00000289  00000+0 -97340-6 0  9996
2 57107  43.0120  94.4667 0001381 269.3075  90.7618 15.27576227165145
STARLINK-6099           
1 57108U 23090H   26165.07717149 -.00000012  00000+0  91031-5 0  9993
2 57108  43.0130  97.2115 0002024 283.1118  76.9507 15.27576966165078
STARLINK-6139           
1 57109U 23090J   26165.50289939 -.00004962  00000+0 -17086-3 0  9998
2 57109  43.0050  95.2353 0002448 287.6316  72.4269 15.27578912165137
STARLINK-6134           
1 57110U 23090K   26165.53101907  .00000555  00000+0  29706-4 0  9996
2 57110  43.0058  94.5975 0002035 275.1728  84.8892 15.27579701165147
STARLINK-6140           
1 57111U 23090L   26164.93740322 -.00000012  00000+0  90801-5 0  9994
2 57111  43.0047  97.8776 0001257 279.6745  80.3965 15.27575566165051
STARLINK-6141           
1 57112U 23090M   26164.10407982  .00000531  00000+0  28809-4 0  9999
2 57112  43.0023 102.7996 0001285 258.2056 101.8652 15.27579725164923
STARLINK-6142           
1 57113U 23090N   26165.51817054 -.00000596  00000+0 -12105-4 0  9996
2 57113  43.0197  94.4961 0001760 270.3458  89.7192 15.27573935165149
STARLINK-6125           
1 57114U 23090P   26165.52204133  .00002780  00000+0  11057-3 0  9995
2 57114  43.0021  94.5297 0000994 256.6936 103.3804 15.27561723165140
STARLINK-6085           
1 57115U 23090Q   26165.05633626  .00034820  00000+0  17173-2 0  9991
2 57115  42.9980  89.4518 0018075 106.7986 253.4846 15.17189012165162
STARLINK-6129           
1 57116U 23090R   26165.51046815 -.00000013  00000+0  90330-5 0  9998
2 57116  43.0064  94.4488 0000841 262.5276  97.5480 15.27587180165143
STARLINK-6148           
1 57117U 23090S   26165.51174546  .00000638  00000+0  32721-4 0  9993
2 57117  43.0032  94.4478 0000700 262.4580  97.6192 15.27562093165135
STARLINK-6150           
1 57119U 23090U   26165.09387757  .00000163  00000+0  15463-4 0  9995
2 57119  43.0096  97.3232 0001310 270.3592  89.7110 15.27576775165073
STARLINK-6147           
1 57120U 23090V   26165.52844916  .00000317  00000+0  21048-4 0  9997
2 57120  43.0056  94.5701 0001414 277.7120  82.3571 15.27578391165148
STARLINK-6152           
1 57121U 23090W   26165.50919108  .00003053  00000+0  12046-3 0  9999
2 57121  43.0010  94.4315 0000794 250.4285 109.6481 15.27569261164956
STARLINK-6149           
1 57122U 23090X   26165.49390886 -.00000250  00000+0  42171-6 0  9996
2 57122  43.0098  95.1614 0000859 248.7717 111.3043 15.27572365165139
STARLINK-6154           
1 57123U 23090Y   26165.07844977  .00000381  00000+0  23390-4 0  9990
2 57123  43.0053  97.2076 0001721 263.7957  96.2698 15.27579116164887
STARLINK-6146           
1 57124U 23090Z   26165.53230416 -.00000815  00000+0 -20090-4 0  9997
2 57124  43.0063  94.5996 0001870 280.2198  79.8443 15.27576862165146
STARLINK-6100           
1 57125U 23090AA  26165.06146493 -.00000552  00000+0 -10529-4 0  9991
2 57125  43.0024  78.9586 0001099 271.8489  88.2236 15.27577712165090
STARLINK-6167           
1 57126U 23090AB  26165.50161635 -.00000102  00000+0  58123-5 0  9999
2 57126  43.0035  95.2160 0000748 213.4269 146.6536 15.27574161165133
