OBJECT_NAME,OBJECT_ID,EPOCH,MEAN_MOTION,ECCENTRICITY,INCLINATION,RA_OF_ASC_NODE,ARG_OF_PERICENTER,MEAN_ANOMALY,EPHEMERIS_TYPE,CLASSIFICATION_TYPE,NORAD_CAT_ID,ELEMENT_SET_NO,REV_AT_EPOCH,BSTAR,MEAN_MOTION_DOT,MEAN_MOTION_DDOT
STARLINK-6259,2023-088AT,2026-06-14T00:24:23.187456,15.27576832,.00021316,43.0054,272.0091,286.7447,73.3171,0,U,57089,999,16523,.9461473E-5,-.2E-7,0
STARLINK-6254,2023-088AU,2026-06-14T00:04:01.656480,15.27573072,.00019724,42.9950,271.9003,248.8160,111.2481,0,U,57090,999,16523,.4611245E-5,-.135E-5,0
STARLINK-6262,2023-088AV,2026-06-14T14:20:41.536608,15.27573701,.0001514,43.0043,268.6254,272.5883,87.4795,0,U,57091,999,16532,.19981E-5,-.207E-5,0
STARLINK-6225,2023-088AW,2026-06-14T14:15:08.810208,15.27596952,.0001182,43.0011,268.6003,271.8107,88.2610,0,U,57092,999,16532,.9854E-4,.2452E-4,0
STARLINK-6229,2023-088AX,2026-06-14T00:29:56.968800,15.27574356,.00026701,43.0072,272.0293,269.0906,90.9640,0,U,57093,999,16523,.75903492E-4,.1826E-4,0
STARLINK-6235,2023-088AY,2026-06-14T00:35:28.209120,15.27583891,.00036691,43.0064,272.0666,294.6869,65.3600,0,U,57094,999,16523,-.89391967E-4,-.2723E-4,0
STARLINK-6132,2023-090A,2026-06-14T01:58:31.158048,15.27583765,.00015336,43.0063,97.2483,260.5724,99.4955,0,U,57101,999,16507,.44839813E-4,.972E-5,0
STARLINK-6111,2023-090B,2026-06-14T02:09:37.763424,15.27577034,.00014561,43.0039,97.3051,237.8409,122.2301,0,U,57102,999,16507,.38992E-4,.811E-5,0
STARLINK-6130,2023-090D,2026-06-14T02:04:04.645632,15.27575923,.00015897,43.0037,97.2760,268.2773,91.7897,0,U,57104,999,16506,.2711334E-5,-.188E-5,0
STARLINK-6097,2023-090E,2026-06-14T02:13:20.490528,15.27581903,.00013869,43.0025,97.3215,257.6055,102.4642,0,U,57105,999,16507,.43732175E-4,.941E-5,0
STARLINK-6118,2023-090F,2026-06-14T01:56:40.612704,15.27578681,.00012972,43.0067,97.2389,261.0042,99.0663,0,U,57106,999,16507,.18669582E-4,.252E-5,0
STARLINK-6131,2023-090G,2026-06-14T12:20:36.812544,15.27576227,.00013815,43.0120,94.4667,269.3075,90.7618,0,U,57107,999,16514,-.9734E-6,-.289E-5,0
STARLINK-6099,2023-090H,2026-06-14T01:51:07.616736,15.27576966,.00020245,43.0130,97.2115,283.1118,76.9507,0,U,57108,999,16507,.9103101E-5,-.12E-6,0
STARLINK-6139,2023-090J,2026-06-14T12:04:10.507296,15.27578912,.0002448,43.0050,95.2353,287.6316,72.4269,0,U,57109,999,16513,-.17086443E-3,-.4962E-4,0
STARLINK-6134,2023-090K,2026-06-14T12:44:40.047648,15.27579701,.00020351,43.0058,94.5975,275.1728,84.8892,0,U,57110,999,16514,.29706045E-4,.555E-5,0
STARLINK-6140,2023-090L,2026-06-13T22:29:51.638208,15.27575566,.00012572,43.0047,97.8776,279.6745,80.3965,0,U,57111,999,16505,.9080068E-5,-.12E-6,0
STARLINK-6141,2023-090M,2026-06-13T02:29:52.496448,15.27579725,.00012858,43.0023,102.7996,258.2056,101.8652,0,U,57112,999,16492,.28808755E-4,.531E-5,0
STARLINK-6142,2023-090N,2026-06-14T12:26:09.934656,15.27573935,.00017605,43.0197,94.4961,270.3458,89.7192,0,U,57113,999,16514,-.12105467E-4,-.596E-5,0
STARLINK-6125,2023-090P,2026-06-14T12:31:44.370912,15.27561723,.00009946,43.0021,94.5297,256.6936,103.3804,0,U,57114,999,16514,.11056925E-3,.278E-4,0
STARLINK-6085,2023-090Q,2026-06-14T01:21:07.452864,15.17189012,.00180758,42.9980,89.4518,106.7986,253.4846,0,U,57115,999,16516,.17172554E-2,.3482E-3,0
STARLINK-6129,2023-090R,2026-06-14T12:15:04.448160,15.27587180,.00008411,43.0064,94.4488,262.5276,97.5480,0,U,57116,999,16514,.9033039E-5,-.13E-6,0
STARLINK-6148,2023-090S,2026-06-14T12:16:54.807744,15.27562093,.00007009,43.0032,94.4478,262.4580,97.6192,0,U,57117,999,16513,.32720512E-4,.638E-5,0
STARLINK-6150,2023-090U,2026-06-14T02:15:11.022048,15.27576775,.00013107,43.0096,97.3232,270.3592,89.7110,0,U,57119,999,16507,.15462967E-4,.163E-5,0
STARLINK-6147,2023-090V,2026-06-14T12:40:58.007424,15.27578391,.00014143,43.0056,94.5701,277.7120,82.3571,0,U,57120,999,16514,.21048155E-4,.317E-5,0
STARLINK-6152,2023-090W,2026-06-14T12:13:14.109312,15.27569261,.00007946,43.0010,94.4315,250.4285,109.6481,0,U,57121,999,16495,.12045866E-3,.3053E-4,0
STARLINK-6149,2023-090X,2026-06-14T11:51:13.725504,15.27572365,.0000859,43.0098,95.1614,248.7717,111.3043,0,U,57122,999,16513,.421708E-6,-.25E-5,0
STARLINK-6154,2023-090Y,2026-06-14T01:52:58.060128,15.27579116,.00017218,43.0053,97.2076,263.7957,96.2698,0,U,57123,999,16488,.23389974E-4,.381E-5,0
STARLINK-6146,2023-090Z,2026-06-14T12:46:31.079424,15.27576862,.00018702,43.0063,94.5996,280.2198,79.8443,0,U,57124,999,16514,-.20090251E-4,-.815E-5,0
STARLINK-6100,2023-090AA,2026-06-14T01:28:30.569952,15.27577712,.00010997,43.0024,78.9586,271.8489,88.2236,0,U,57125,999,16509,-.10529411E-4,-.552E-5,0
STARLINK-6167,2023-090AB,2026-06-14T12:02:19.652640,15.27574161,.00007488,43.0035,95.2160,213.4269,146.6536,0,U,57126,999,16513,.581233E-5,-.102E-5,0
